[
    {
        "native": "افغانستان",
        "name": "Afghanistan",
        "code": "AF",
        "phoneCode": "93",
        "states": []
    },
    {
        "native": "Åland",
        "name": "Aland Islands",
        "code": "AX",
        "phoneCode": "+358-18",
        "states": []
    },
    {
        "native": "Shqipëria",
        "name": "Albania",
        "code": "AL",
        "phoneCode": "355",
        "states": []
    },
    {
        "native": "الجزائر",
        "name": "Algeria",
        "code": "DZ",
        "phoneCode": "213",
        "states": []
    },
    {
        "native": "American Samoa",
        "name": "American Samoa",
        "code": "AS",
        "phoneCode": "+1-684",
        "states": []
    },
    {
        "native": "Andorra",
        "name": "Andorra",
        "code": "AD",
        "phoneCode": "376",
        "states": []
    },
    {
        "native": "Angola",
        "name": "Angola",
        "code": "AO",
        "phoneCode": "244",
        "states": []
    },
    {
        "native": "Anguilla",
        "name": "Anguilla",
        "code": "AI",
        "phoneCode": "+1-264",
        "states": []
    },
    {
        "native": "Antarctica",
        "name": "Antarctica",
        "code": "AQ",
        "phoneCode": "",
        "states": []
    },
    {
        "native": "Antigua and Barbuda",
        "name": "Antigua And Barbuda",
        "code": "AG",
        "phoneCode": "+1-268",
        "states": []
    },
    {
        "native": "Argentina",
        "name": "Argentina",
        "code": "AR",
        "phoneCode": "54",
        "states": [
            "Ciudad Autónoma de Buenos Aires",
            "Buenos Aires",
            "Catamarca",
            "Chaco",
            "Chubut",
            "Córdoba",
            "Corrientes",
            "Entre Ríos",
            "Formosa",
            "Jujuy",
            "La Pampa",
            "La Rioja",
            "Mendoza",
            "Misiones",
            "Neuquén",
            "Río Negro",
            "Salta",
            "San Juan",
            "San Luis",
            "Santa Cruz",
            "Santa Fe",
            "Santiago del Estero",
            "Tierra del Fuego, Antártida e Islas del Atlántico Sur",
            "Tucumán"
        ]
    },
    {
        "native": "Հայաստան",
        "name": "Armenia",
        "code": "AM",
        "phoneCode": "374",
        "states": []
    },
    {
        "native": "Aruba",
        "name": "Aruba",
        "code": "AW",
        "phoneCode": "297",
        "states": []
    },
    {
        "native": "Australia",
        "name": "Australia",
        "code": "AU",
        "phoneCode": "61",
        "states": [
            "Ashmore and Cartier Islands",
            "Australian Antarctic Territory",
            "Australian Capital Territory",
            "Christmas Island",
            "Cocos Islands",
            "Coral Sea Islands",
            "Heard Island and McDonald Islands",
            "Jervis Bay Territory",
            "New South Wales",
            "Norfolk Island",
            "Northern Territory",
            "Queensland",
            "South Australia",
            "Tasmania",
            "Victoria",
            "Western Australia"
        ]
    },
    {
        "native": "Österreich",
        "name": "Austria",
        "code": "AT",
        "phoneCode": "43",
        "states": [
            "Burgenland",
            "Kärnten",
            "Niederösterreich",
            "Oberösterreich",
            "Salzburg",
            "Steiermark",
            "Tirol",
            "Vorarlberg",
            "Wien"
        ]
    },
    {
        "native": "Azərbaycan",
        "name": "Azerbaijan",
        "code": "AZ",
        "phoneCode": "994",
        "states": []
    },
    {
        "native": "Bahamas",
        "name": "Bahamas The",
        "code": "BS",
        "phoneCode": "+1-242",
        "states": []
    },
    {
        "native": "‏البحرين",
        "name": "Bahrain",
        "code": "BH",
        "phoneCode": "973",
        "states": []
    },
    {
        "native": "Bangladesh",
        "name": "Bangladesh",
        "code": "BD",
        "phoneCode": "880",
        "states": [
            "বরগুনা",
            "বরিশাল",
            "ভোলা",
            "ঝালকাঠি",
            "পটুয়াখালী",
            "পিরোজপুর",
            "বান্দরবান",
            "ব্রাহ্মণবাড়ীয়া",
            "চাঁদপুর",
            "চট্টগ্রাম",
            "কুমিল্লা",
            "কক্সবাজার",
            "ফেনী",
            "খাগড়াছড়ি",
            "লক্ষীপুর",
            "নোয়াখালী",
            "রাঙ্গামাটি",
            "ঢাকা",
            "ফরিদপুর",
            "গাজীপুর",
            "গোপালগঞ্জ",
            "জামালপুর",
            "কিশোরগঞ্জ",
            "মাদারীপুর",
            "মানিকগঞ্জ",
            "মুন্সীগঞ্জ",
            "ময়মনসিংহ",
            "নারায়ণগঞ্জ",
            "নরসিংদী",
            "নেত্রকোনা",
            "রাজবাড়ী",
            "শরীয়তপুর",
            "শেরপুর",
            "টাঙ্গাইল",
            "বাগেরহাট",
            "চুয়াডাঙ্গা",
            "যশোর",
            "ঝিনাইদহ",
            "খুলনা",
            "কুষ্টিয়া",
            "মাগুরা",
            "মেহেরপুর",
            "নড়াইল",
            "সাতক্ষিরা",
            "বগুড়া",
            "জয়পুরহাট",
            "নওগাঁ",
            "নাটোর",
            "নওয়াবগঞ্জ",
            "পাবনা",
            "রাজশাহী",
            "সিরাজগঞ্জ",
            "দিনাজপুর",
            "গাইবান্ধা",
            "কুড়িগ্রাম",
            "লালমনিরহাট",
            "নীলফামারী",
            "পঞ্চগড়",
            "রংপুর",
            "ঠাকুরগাঁ",
            "হবিগঞ্জ",
            "মৌলভীবাজার",
            "সুনামগঞ্জ",
            "সিলেট"
        ]
    },
    {
        "native": "Barbados",
        "name": "Barbados",
        "code": "BB",
        "phoneCode": "+1-246",
        "states": []
    },
    {
        "native": "Белару́сь",
        "name": "Belarus",
        "code": "BY",
        "phoneCode": "375",
        "states": []
    },
    {
        "native": "België",
        "name": "Belgium",
        "code": "BE",
        "phoneCode": "32",
        "states": [
            "Antwerpen",
            "Henegouwen",
            "Luik",
            "Limburg",
            "Luxemburg",
            "Namen",
            "Oost-Vlaanderen",
            "Vlaams-Brabant",
            "Waals-Brabant",
            "West-Vlaanderen"
        ]
    },
    {
        "native": "Belize",
        "name": "Belize",
        "code": "BZ",
        "phoneCode": "501",
        "states": []
    },
    {
        "native": "Bénin",
        "name": "Benin",
        "code": "BJ",
        "phoneCode": "229",
        "states": []
    },
    {
        "native": "Bermuda",
        "name": "Bermuda",
        "code": "BM",
        "phoneCode": "+1-441",
        "states": []
    },
    {
        "native": "ʼbrug-yul",
        "name": "Bhutan",
        "code": "BT",
        "phoneCode": "975",
        "states": []
    },
    {
        "native": "Bolivia",
        "name": "Bolivia",
        "code": "BO",
        "phoneCode": "591",
        "states": [
            "Cercado",
            "Iténez",
            "José Ballivián",
            "Mamoré",
            "Marbán",
            "Moxos",
            "Vaca Díez",
            "Yacuma",
            "Azurduy",
            "Belisario Boeto",
            "Hernando Siles",
            "Jaime Zudáñez",
            "Luis Calvo",
            "Nor Cinti",
            "Oropeza",
            "Sud Cinti",
            "Tomina",
            "Yamparáez",
            "Arani",
            "Arque",
            "Ayopaya",
            "Capinota",
            "Carrasco",
            "Cercado",
            "Chapare",
            "Esteban Arce",
            "Germán Jordán",
            "Mizque",
            "Campero",
            "Punata",
            "Quillacollo",
            "Bolívar",
            "Tapacarí",
            "Tiraque",
            "Abel Iturralde",
            "Aroma",
            "Bautista Saavedra",
            "Caranavi",
            "Eliodoro Camacho",
            "Franz Tamayo",
            "Gualberto Villarroel",
            "Ingavi",
            "Inquisivi",
            "José Manuel Pando",
            "Larecaja",
            "Loayza",
            "Los Andes",
            "Manco Kapac",
            "Muñecas",
            "Nor Yungas",
            "Omasuyos",
            "Pacajes",
            "Murillo",
            "Sud Yungas",
            "Atahuallpa",
            "Carangas",
            "Cercado",
            "Eduardo Avaroa",
            "Ladislao Cabrera",
            "Litoral",
            "Nor Carangas",
            "Pantaléon Dalence",
            "Poopó",
            "Puerto de Mejillones",
            "Sajama",
            "San Pedro de Totora",
            "Saucarí",
            "Sebastián Pagador",
            "Sud Carangas",
            "Tomas Barrón",
            "Abuná",
            "Federico Román",
            "Madre de Dios",
            "Manuripi",
            "Nicolás Suárez",
            "Alonso de Ibáñez",
            "Antonio Quijarro",
            "Bernardino Bilbao",
            "Charcas",
            "Chayanta",
            "Cornelio Saavedra",
            "Daniel Campos",
            "Enrique Baldivieso",
            "José María Linares",
            "Modesto Omiste",
            "Nor Chichas",
            "Nor Lípez",
            "Rafael Bustillo",
            "Sur Chichas",
            "Sur Lípez",
            "Tomás Frías",
            "Andrés Ibáñez",
            "Ángel Sandoval",
            "Chiquitos",
            "Cordillera",
            "Florida",
            "Germán Busch",
            "Guarayos",
            "Ichilo",
            "Ignacio Warnes",
            "José Miguel de Velasco",
            "Manuel María Caballero",
            "Ñuflo de Chávez",
            "Obispo Santistevan",
            "Sara",
            "Vallegrande",
            "Aniceto Arce",
            "Burnet O'Connor",
            "Cercado",
            "Eustaquio Méndez",
            "Gran Chaco",
            "José María Avilés"
        ]
    },
    {
        "native": "Caribisch Nederland",
        "name": "Bonaire, Sint Eustatius and Saba",
        "code": "BQ",
        "phoneCode": "599",
        "states": []
    },
    {
        "native": "Bosna i Hercegovina",
        "name": "Bosnia and Herzegovina",
        "code": "BA",
        "phoneCode": "387",
        "states": []
    },
    {
        "native": "Botswana",
        "name": "Botswana",
        "code": "BW",
        "phoneCode": "267",
        "states": []
    },
    {
        "native": "Bouvetøya",
        "name": "Bouvet Island",
        "code": "BV",
        "phoneCode": "0055",
        "states": []
    },
    {
        "native": "Brasil",
        "name": "Brazil",
        "code": "BR",
        "phoneCode": "55",
        "states": [
            "Acre",
            "Alagoas",
            "Amapá",
            "Amazonas",
            "Bahia",
            "Ceará",
            "Distrito Federal",
            "Espírito Santo",
            "Goiás",
            "Maranhão",
            "Mato Grosso",
            "Mato Grosso do Sul",
            "Minas Gerais",
            "Pará",
            "Paraíba",
            "Paraná",
            "Pernambuco",
            "Piauí",
            "Rio de Janeiro",
            "Rio Grande do Norte",
            "Rio Grande do Sul",
            "Rondônia",
            "Roraima",
            "Santa Catarina",
            "São Paulo",
            "Sergipe",
            "Tocantins"
        ]
    },
    {
        "native": "British Indian Ocean Territory",
        "name": "British Indian Ocean Territory",
        "code": "IO",
        "phoneCode": "246",
        "states": []
    },
    {
        "native": "Negara Brunei Darussalam",
        "name": "Brunei",
        "code": "BN",
        "phoneCode": "673",
        "states": []
    },
    {
        "native": "България",
        "name": "Bulgaria",
        "code": "BG",
        "phoneCode": "359",
        "states": []
    },
    {
        "native": "Burkina Faso",
        "name": "Burkina Faso",
        "code": "BF",
        "phoneCode": "226",
        "states": []
    },
    {
        "native": "Burundi",
        "name": "Burundi",
        "code": "BI",
        "phoneCode": "257",
        "states": []
    },
    {
        "native": "Kâmpŭchéa",
        "name": "Cambodia",
        "code": "KH",
        "phoneCode": "855",
        "states": [
            "ភ្នំពេញ",
            "បន្ទាយមានជ័យ",
            "បាត់ដំបង",
            "កំពង់ចាម",
            "កំពង់ឆ្នាំង",
            "កំពង់ស្ពឺ",
            "កំពង់ធំ",
            "កំពត",
            "កណ្តាល",
            "កោះកុង",
            "កែប",
            "ក្រចេះ",
            "មណ្ឌលគីរី",
            "ឧត្តរមានជ័យ",
            "បៃលិន",
            "ព្រះសីហនុ",
            "ព្រះវិហារ",
            "ពោធិ៍សាត់",
            "ព្រៃវែង",
            "រតនគីរី",
            "សៀមរាប",
            "ស្ទឹងត្រែង",
            "ស្វាយរៀង",
            "តាកែវ",
            "ត្បូងឃ្មុំ"
        ]
    },
    {
        "native": "Cameroon",
        "name": "Cameroon",
        "code": "CM",
        "phoneCode": "237",
        "states": []
    },
    {
        "native": "Canada",
        "name": "Canada",
        "code": "CA",
        "phoneCode": "1",
        "states": [
            "Alberta",
            "British Columbia",
            "Manitoba",
            "New Brunswick",
            "Newfoundland and Labrador",
            "Nova Scotia",
            "Nunavut",
            "Northwest Territories",
            "Ontario",
            "Prince Edward Island",
            "Quebec",
            "Saskatchewan",
            "Yukon"
        ]
    },
    {
        "native": "Cabo Verde",
        "name": "Cape Verde",
        "code": "CV",
        "phoneCode": "238",
        "states": []
    },
    {
        "native": "Cayman Islands",
        "name": "Cayman Islands",
        "code": "KY",
        "phoneCode": "+1-345",
        "states": []
    },
    {
        "native": "Ködörösêse tî Bêafrîka",
        "name": "Central African Republic",
        "code": "CF",
        "phoneCode": "236",
        "states": []
    },
    {
        "native": "Tchad",
        "name": "Chad",
        "code": "TD",
        "phoneCode": "235",
        "states": []
    },
    {
        "native": "Chile",
        "name": "Chile",
        "code": "CL",
        "phoneCode": "56",
        "states": [
            "Arica",
            "Parinacota",
            "Iquique",
            "Tamarugal",
            "Antofagasta",
            "El Loa",
            "Tocopilla",
            "Copiapó",
            "Huasco",
            "Chañaral",
            "Elqui",
            "Limarí",
            "Choapa",
            "Isla de Pascua",
            "Los Andes",
            "Marga Marga",
            "Petorca",
            "Quillota",
            "San Antonio",
            "San Felipe de Aconcagua",
            "Valparaíso",
            "Cachapoal",
            "Colchagua",
            "Cardenal Caro",
            "Talca",
            "Linares",
            "Curicó",
            "Cauquenes",
            "Concepción",
            "Ñuble",
            "Biobío",
            "Arauco",
            "Cautin",
            "Malleco",
            "Valdivia",
            "Ranco",
            "Llanquihue",
            "Osorno",
            "Chiloe",
            "Palena",
            "Coihaique",
            "Aisén",
            "General Carrera",
            "Capitan Prat",
            "Magallanes",
            "Ultima Esperanza",
            "Tierra del Fuego",
            "Antártica Chilena",
            "Santiago",
            "Cordillera",
            "Maipo",
            "Talagante",
            "Melipilla",
            "Chacabuco"
        ]
    },
    {
        "native": "中国",
        "name": "China",
        "code": "CN",
        "phoneCode": "86",
        "states": [
            "重庆",
            "黑龙江",
            "吉林",
            "海南",
            "北京",
            "辽宁",
            "内蒙古",
            "西藏",
            "青海",
            "宁夏",
            "新疆",
            "甘肃",
            "河北",
            "河南",
            "湖北",
            "湖南",
            "山东",
            "江苏",
            "安徽",
            "山西",
            "陕西",
            "四川",
            "云南",
            "贵州",
            "浙江",
            "福建",
            "广西",
            "上海",
            "天津",
            "香港",
            "澳门",
            "台湾",
            "江西",
            "广东"
        ]
    },
    {
        "native": "Christmas Island",
        "name": "Christmas Island",
        "code": "CX",
        "phoneCode": "61",
        "states": []
    },
    {
        "native": "Cocos (Keeling) Islands",
        "name": "Cocos (Keeling) Islands",
        "code": "CC",
        "phoneCode": "61",
        "states": []
    },
    {
        "native": "Colombia",
        "name": "Colombia",
        "code": "CO",
        "phoneCode": "57",
        "states": []
    },
    {
        "native": "Komori",
        "name": "Comoros",
        "code": "KM",
        "phoneCode": "269",
        "states": []
    },
    {
        "native": "République du Congo",
        "name": "Congo",
        "code": "CG",
        "phoneCode": "242",
        "states": []
    },
    {
        "native": "République démocratique du Congo",
        "name": "Congo The Democratic Republic Of The",
        "code": "CD",
        "phoneCode": "243",
        "states": []
    },
    {
        "native": "Cook Islands",
        "name": "Cook Islands",
        "code": "CK",
        "phoneCode": "682",
        "states": []
    },
    {
        "native": "Costa Rica",
        "name": "Costa Rica",
        "code": "CR",
        "phoneCode": "506",
        "states": [
            "San José",
            "Alajuela",
            "Cartago",
            "Heredia",
            "Guanacaste",
            "Puntarenas",
            "Limón"
        ]
    },
    {
        "native": "Ivory Coast",
        "name": "Cote D'Ivoire (Ivory Coast)",
        "code": "CI",
        "phoneCode": "225",
        "states": []
    },
    {
        "native": "Hrvatska",
        "name": "Croatia (Hrvatska)",
        "code": "HR",
        "phoneCode": "385",
        "states": []
    },
    {
        "native": "Cuba",
        "name": "Cuba",
        "code": "CU",
        "phoneCode": "53",
        "states": [
            "Camagüey",
            "Ciego de Ávila",
            "Cienfuegos",
            "Havana",
            "Bayamo",
            "Guantánamo",
            "Holguín",
            "Nueva Gerona",
            "Artemisa",
            "Las Tunas",
            "Matanzas",
            "San José de las Lajas",
            "Pinar del Río",
            "Sancti Spíritus",
            "Santiago de Cuba",
            "Santa Clara"
        ]
    },
    {
        "native": "Curaçao",
        "name": "Curaçao",
        "code": "CW",
        "phoneCode": "599",
        "states": []
    },
    {
        "native": "Κύπρος",
        "name": "Cyprus",
        "code": "CY",
        "phoneCode": "357",
        "states": []
    },
    {
        "native": "Česká republika",
        "name": "Czech Republic",
        "code": "CZ",
        "phoneCode": "420",
        "states": []
    },
    {
        "native": "Danmark",
        "name": "Denmark",
        "code": "DK",
        "phoneCode": "45",
        "states": [
            "Hovedstaden",
            "Midtjylland",
            "Nordjylland",
            "Sjælland",
            "Syddanmark"
        ]
    },
    {
        "native": "Djibouti",
        "name": "Djibouti",
        "code": "DJ",
        "phoneCode": "253",
        "states": []
    },
    {
        "native": "Dominica",
        "name": "Dominica",
        "code": "DM",
        "phoneCode": "+1-767",
        "states": []
    },
    {
        "native": "República Dominicana",
        "name": "Dominican Republic",
        "code": "DO",
        "phoneCode": "+1-809 and 1-829",
        "states": []
    },
    {
        "native": "Timor-Leste",
        "name": "East Timor",
        "code": "TL",
        "phoneCode": "670",
        "states": []
    },
    {
        "native": "Ecuador",
        "name": "Ecuador",
        "code": "EC",
        "phoneCode": "593",
        "states": []
    },
    {
        "native": "مصر‎",
        "name": "Egypt",
        "code": "EG",
        "phoneCode": "20",
        "states": []
    },
    {
        "native": "El Salvador",
        "name": "El Salvador",
        "code": "SV",
        "phoneCode": "503",
        "states": []
    },
    {
        "native": "Guinea Ecuatorial",
        "name": "Equatorial Guinea",
        "code": "GQ",
        "phoneCode": "240",
        "states": []
    },
    {
        "native": "ኤርትራ",
        "name": "Eritrea",
        "code": "ER",
        "phoneCode": "291",
        "states": []
    },
    {
        "native": "Eesti",
        "name": "Estonia",
        "code": "EE",
        "phoneCode": "372",
        "states": []
    },
    {
        "native": "ኢትዮጵያ",
        "name": "Ethiopia",
        "code": "ET",
        "phoneCode": "251",
        "states": [
            "Addis Ababa",
            "Afar Region",
            "Amhara Region",
            "Benishangul-Gumuz",
            "Dire Dawa",
            "Gambela",
            "Harari",
            "Oromia",
            "Somali",
            "Southern Nations, Nationalities, and Peoples' Region",
            "Tigray Region"
        ]
    },
    {
        "native": "Falkland Islands",
        "name": "Falkland Islands",
        "code": "FK",
        "phoneCode": "500",
        "states": []
    },
    {
        "native": "Føroyar",
        "name": "Faroe Islands",
        "code": "FO",
        "phoneCode": "298",
        "states": []
    },
    {
        "native": "Fiji",
        "name": "Fiji Islands",
        "code": "FJ",
        "phoneCode": "679",
        "states": []
    },
    {
        "native": "Suomi",
        "name": "Finland",
        "code": "FI",
        "phoneCode": "358",
        "states": []
    },
    {
        "native": "France",
        "name": "France",
        "code": "FR",
        "phoneCode": "33",
        "states": []
    },
    {
        "native": "Guyane française",
        "name": "French Guiana",
        "code": "GF",
        "phoneCode": "594",
        "states": []
    },
    {
        "native": "Polynésie française",
        "name": "French Polynesia",
        "code": "PF",
        "phoneCode": "689",
        "states": []
    },
    {
        "native": "Territoire des Terres australes et antarctiques fr",
        "name": "French Southern Territories",
        "code": "TF",
        "phoneCode": "",
        "states": []
    },
    {
        "native": "Gabon",
        "name": "Gabon",
        "code": "GA",
        "phoneCode": "241",
        "states": []
    },
    {
        "native": "Gambia",
        "name": "Gambia The",
        "code": "GM",
        "phoneCode": "220",
        "states": []
    },
    {
        "native": "საქართველო",
        "name": "Georgia",
        "code": "GE",
        "phoneCode": "995",
        "states": []
    },
    {
        "native": "Deutschland",
        "name": "Germany",
        "code": "DE",
        "phoneCode": "49",
        "states": [
            "Baden-Württemberg",
            "Bayern",
            "Berlin",
            "Brandenburg",
            "Bremen",
            "Hamburg",
            "Hessen",
            "Mecklenburg-Vorpommern",
            "Niedersachsen",
            "Nordrhein-Westfalen",
            "Rheinland-Pfalz",
            "Saarland",
            "Sachsen",
            "Sachsen-Anhalt",
            "Schleswig-Holstein",
            "Thüringen"
        ]
    },
    {
        "native": "Ghana",
        "name": "Ghana",
        "code": "GH",
        "phoneCode": "233",
        "states": []
    },
    {
        "native": "Gibraltar",
        "name": "Gibraltar",
        "code": "GI",
        "phoneCode": "350",
        "states": []
    },
    {
        "native": "Ελλάδα",
        "name": "Greece",
        "code": "GR",
        "phoneCode": "30",
        "states": []
    },
    {
        "native": "Kalaallit Nunaat",
        "name": "Greenland",
        "code": "GL",
        "phoneCode": "299",
        "states": []
    },
    {
        "native": "Grenada",
        "name": "Grenada",
        "code": "GD",
        "phoneCode": "+1-473",
        "states": []
    },
    {
        "native": "Guadeloupe",
        "name": "Guadeloupe",
        "code": "GP",
        "phoneCode": "590",
        "states": []
    },
    {
        "native": "Guam",
        "name": "Guam",
        "code": "GU",
        "phoneCode": "+1-671",
        "states": []
    },
    {
        "native": "Guatemala",
        "name": "Guatemala",
        "code": "GT",
        "phoneCode": "502",
        "states": []
    },
    {
        "native": "Guernsey",
        "name": "Guernsey and Alderney",
        "code": "GG",
        "phoneCode": "+44-1481",
        "states": []
    },
    {
        "native": "Guinée",
        "name": "Guinea",
        "code": "GN",
        "phoneCode": "224",
        "states": []
    },
    {
        "native": "Guiné-Bissau",
        "name": "Guinea-Bissau",
        "code": "GW",
        "phoneCode": "245",
        "states": []
    },
    {
        "native": "Guyana",
        "name": "Guyana",
        "code": "GY",
        "phoneCode": "592",
        "states": []
    },
    {
        "native": "Haïti",
        "name": "Haiti",
        "code": "HT",
        "phoneCode": "509",
        "states": []
    },
    {
        "native": "Heard Island and McDonald Islands",
        "name": "Heard Island and McDonald Islands",
        "code": "HM",
        "phoneCode": "",
        "states": []
    },
    {
        "native": "Honduras",
        "name": "Honduras",
        "code": "HN",
        "phoneCode": "504",
        "states": []
    },
    {
        "native": "香港",
        "name": "Hong Kong S.A.R.",
        "code": "HK",
        "phoneCode": "852",
        "states": []
    },
    {
        "native": "Magyarország",
        "name": "Hungary",
        "code": "HU",
        "phoneCode": "36",
        "states": []
    },
    {
        "native": "Ísland",
        "name": "Iceland",
        "code": "IS",
        "phoneCode": "354",
        "states": []
    },
    {
        "native": "भारत",
        "name": "India",
        "code": "IN",
        "phoneCode": "91",
        "states": [
            "Andhra Pradesh",
            "Arunachal Pradesh",
            "Assam",
            "Bihar",
            "Chhattisgarh",
            "Goa",
            "Gujarat",
            "Haryana",
            "Himachal Pradesh",
            "Jammu and Kashmir",
            "Jharkhand",
            "Karnataka",
            "Kerala",
            "Madhya Pradesh",
            "Maharashtra",
            "Manipur",
            "Meghalaya",
            "Mizoram",
            "Nagaland",
            "Odisha",
            "Punjab",
            "Rajasthan",
            "Sikkim",
            "Tamil Nadu",
            "Telangana",
            "Tripura",
            "Uttar Pradesh",
            "Uttarakhand",
            "West Bengal",
            "Andaman and Nicobar Islands",
            "Chandigarh",
            "Dadra and Nagar Haveli",
            "Daman and Diu",
            "Lakshadweep",
            "National Capital Territory of Delhi",
            "Puducherry"
        ]
    },
    {
        "native": "Indonesia",
        "name": "Indonesia",
        "code": "ID",
        "phoneCode": "62",
        "states": [
            "Special Region of Aceh",
            "Bali",
            "Bangka–Belitung Islands",
            "Banten",
            "Bengkulu",
            "Central Java",
            "Central Kalimantan",
            "Central Sulawesi",
            "East Java",
            "East Kalimantan",
            "East Nusa Tenggara",
            "Gorontalo",
            "Jakarta Special Capital Region",
            "Jambi",
            "Lampung",
            "Maluku",
            "North Kalimantan",
            "North Maluku",
            "North Sulawesi",
            "North Sumatra",
            "Special Region of Papua",
            "Riau",
            "Riau Islands",
            "Southeast Sulawesi",
            "South Kalimantan",
            "South Sulawesi",
            "South Sumatra",
            "West Java",
            "West Kalimantan",
            "West Nusa Tenggara",
            "Special Region of West Papua",
            "West Sulawesi",
            "West Sumatra",
            "Special Region of Yogyakarta"
        ]
    },
    {
        "native": "ایران",
        "name": "Iran",
        "code": "IR",
        "phoneCode": "98",
        "states": []
    },
    {
        "native": "العراق",
        "name": "Iraq",
        "code": "IQ",
        "phoneCode": "964",
        "states": []
    },
    {
        "native": "Éire",
        "name": "Ireland",
        "code": "IE",
        "phoneCode": "353",
        "states": []
    },
    {
        "native": "יִשְׂרָאֵל",
        "name": "Israel",
        "code": "IL",
        "phoneCode": "972",
        "states": []
    },
    {
        "native": "Italia",
        "name": "Italy",
        "code": "IT",
        "phoneCode": "39",
        "states": []
    },
    {
        "native": "Jamaica",
        "name": "Jamaica",
        "code": "JM",
        "phoneCode": "+1-876",
        "states": []
    },
    {
        "native": "日本",
        "name": "Japan",
        "code": "JP",
        "phoneCode": "81",
        "states": [
            "愛知県",
            "秋田県",
            "青森県",
            "千葉県",
            "愛媛県",
            "福井県",
            "福岡県",
            "福島県",
            "岐阜県",
            "群馬県",
            "広島県",
            "北海道",
            "兵庫県",
            "茨城県",
            "石川県",
            "岩手県",
            "香川県",
            "鹿児島県",
            "神奈川県",
            "高知県",
            "熊本県",
            "京都府",
            "三重県",
            "宮城県",
            "宮崎県",
            "長野県",
            "長崎県",
            "奈良県",
            "新潟県",
            "大分県",
            "岡山県",
            "沖縄県",
            "大阪府",
            "佐賀県",
            "埼玉県",
            "滋賀県",
            "島根県",
            "静岡県",
            "栃木県",
            "徳島県",
            "東京都",
            "鳥取県",
            "富山県",
            "和歌山県",
            "山形県",
            "山口県",
            "山梨県"
        ]
    },
    {
        "native": "Jersey",
        "name": "Jersey",
        "code": "JE",
        "phoneCode": "+44-1534",
        "states": []
    },
    {
        "native": "الأردن",
        "name": "Jordan",
        "code": "JO",
        "phoneCode": "962",
        "states": [
            "Irbid",
            "Ajloun",
            "Jerash",
            "Mafraq",
            "Balqa",
            "Amman",
            "Zarqa",
            "Madaba",
            "Karak",
            "Tafilah",
            "Ma'an",
            "Aqaba"
        ]
    },
    {
        "native": "Қазақстан",
        "name": "Kazakhstan",
        "code": "KZ",
        "phoneCode": "7",
        "states": []
    },
    {
        "native": "Kenya",
        "name": "Kenya",
        "code": "KE",
        "phoneCode": "254",
        "states": []
    },
    {
        "native": "Kiribati",
        "name": "Kiribati",
        "code": "KI",
        "phoneCode": "686",
        "states": []
    },
    {
        "native": "북한",
        "name": "Korea North",
        "code": "KP",
        "phoneCode": "850",
        "states": []
    },
    {
        "native": "대한민국",
        "name": "Korea South",
        "code": "KR",
        "phoneCode": "82",
        "states": []
    },
    {
        "native": "Republika e Kosovës",
        "name": "Kosovo",
        "code": "XK",
        "phoneCode": "383",
        "states": []
    },
    {
        "native": "الكويت",
        "name": "Kuwait",
        "code": "KW",
        "phoneCode": "965",
        "states": []
    },
    {
        "native": "Кыргызстан",
        "name": "Kyrgyzstan",
        "code": "KG",
        "phoneCode": "996",
        "states": []
    },
    {
        "native": "ສປປລາວ",
        "name": "Laos",
        "code": "LA",
        "phoneCode": "856",
        "states": []
    },
    {
        "native": "Latvija",
        "name": "Latvia",
        "code": "LV",
        "phoneCode": "371",
        "states": []
    },
    {
        "native": "لبنان",
        "name": "Lebanon",
        "code": "LB",
        "phoneCode": "961",
        "states": []
    },
    {
        "native": "Lesotho",
        "name": "Lesotho",
        "code": "LS",
        "phoneCode": "266",
        "states": []
    },
    {
        "native": "Liberia",
        "name": "Liberia",
        "code": "LR",
        "phoneCode": "231",
        "states": []
    },
    {
        "native": "‏ليبيا",
        "name": "Libya",
        "code": "LY",
        "phoneCode": "218",
        "states": []
    },
    {
        "native": "Liechtenstein",
        "name": "Liechtenstein",
        "code": "LI",
        "phoneCode": "423",
        "states": []
    },
    {
        "native": "Lietuva",
        "name": "Lithuania",
        "code": "LT",
        "phoneCode": "370",
        "states": []
    },
    {
        "native": "Luxembourg",
        "name": "Luxembourg",
        "code": "LU",
        "phoneCode": "352",
        "states": []
    },
    {
        "native": "澳門",
        "name": "Macau S.A.R.",
        "code": "MO",
        "phoneCode": "853",
        "states": []
    },
    {
        "native": "Северна Македонија",
        "name": "Macedonia",
        "code": "MK",
        "phoneCode": "389",
        "states": []
    },
    {
        "native": "Madagasikara",
        "name": "Madagascar",
        "code": "MG",
        "phoneCode": "261",
        "states": []
    },
    {
        "native": "Malawi",
        "name": "Malawi",
        "code": "MW",
        "phoneCode": "265",
        "states": []
    },
    {
        "native": "Malaysia",
        "name": "Malaysia",
        "code": "MY",
        "phoneCode": "60",
        "states": []
    },
    {
        "native": "Maldives",
        "name": "Maldives",
        "code": "MV",
        "phoneCode": "960",
        "states": []
    },
    {
        "native": "Mali",
        "name": "Mali",
        "code": "ML",
        "phoneCode": "223",
        "states": []
    },
    {
        "native": "Malta",
        "name": "Malta",
        "code": "MT",
        "phoneCode": "356",
        "states": []
    },
    {
        "native": "Isle of Man",
        "name": "Man (Isle of)",
        "code": "IM",
        "phoneCode": "+44-1624",
        "states": []
    },
    {
        "native": "M̧ajeļ",
        "name": "Marshall Islands",
        "code": "MH",
        "phoneCode": "692",
        "states": []
    },
    {
        "native": "Martinique",
        "name": "Martinique",
        "code": "MQ",
        "phoneCode": "596",
        "states": []
    },
    {
        "native": "موريتانيا",
        "name": "Mauritania",
        "code": "MR",
        "phoneCode": "222",
        "states": []
    },
    {
        "native": "Maurice",
        "name": "Mauritius",
        "code": "MU",
        "phoneCode": "230",
        "states": []
    },
    {
        "native": "Mayotte",
        "name": "Mayotte",
        "code": "YT",
        "phoneCode": "262",
        "states": []
    },
    {
        "native": "México",
        "name": "Mexico",
        "code": "MX",
        "phoneCode": "52",
        "states": [
            "Aguascalientes",
            "Baja California",
            "Baja California Sur",
            "Campeche",
            "Chiapas",
            "Chihuahua",
            "Coahuila",
            "Colima",
            "Federal District",
            "Durango",
            "Guanajuato",
            "Guerrero",
            "Hidalgo",
            "Jalisco",
            "Mexico",
            "Michoacán",
            "Morelos",
            "Nayarit",
            "Nuevo León",
            "Oaxaca",
            "Puebla",
            "Querétaro",
            "Quintana Roo",
            "San Luis Potosí",
            "Sinaloa",
            "Sonora",
            "Tabasco",
            "Tamaulipas",
            "Tlaxcala",
            "Veracruz",
            "Yucatán",
            "Zacatecas"
        ]
    },
    {
        "native": "Micronesia",
        "name": "Micronesia",
        "code": "FM",
        "phoneCode": "691",
        "states": []
    },
    {
        "native": "Moldova",
        "name": "Moldova",
        "code": "MD",
        "phoneCode": "373",
        "states": []
    },
    {
        "native": "Monaco",
        "name": "Monaco",
        "code": "MC",
        "phoneCode": "377",
        "states": []
    },
    {
        "native": "Монгол улс",
        "name": "Mongolia",
        "code": "MN",
        "phoneCode": "976",
        "states": []
    },
    {
        "native": "Црна Гора",
        "name": "Montenegro",
        "code": "ME",
        "phoneCode": "382",
        "states": []
    },
    {
        "native": "Montserrat",
        "name": "Montserrat",
        "code": "MS",
        "phoneCode": "+1-664",
        "states": []
    },
    {
        "native": "المغرب",
        "name": "Morocco",
        "code": "MA",
        "phoneCode": "212",
        "states": []
    },
    {
        "native": "Moçambique",
        "name": "Mozambique",
        "code": "MZ",
        "phoneCode": "258",
        "states": []
    },
    {
        "native": "မြန်မာ",
        "name": "Myanmar",
        "code": "MM",
        "phoneCode": "95",
        "states": []
    },
    {
        "native": "Namibia",
        "name": "Namibia",
        "code": "NA",
        "phoneCode": "264",
        "states": []
    },
    {
        "native": "Nauru",
        "name": "Nauru",
        "code": "NR",
        "phoneCode": "674",
        "states": []
    },
    {
        "native": "नपल",
        "name": "Nepal",
        "code": "NP",
        "phoneCode": "977",
        "states": []
    },
    {
        "native": "Nederland",
        "name": "Netherlands The",
        "code": "NL",
        "phoneCode": "31",
        "states": [
            "Drenthe",
            "Flevoland",
            "Friesland",
            "Gelderland",
            "Groningen",
            "Limburg",
            "Noord-Brabant",
            "Noord-Holland",
            "Overijssel",
            "Utrecht",
            "Zuid-Holland",
            "Zeeland"
        ]
    },
    {
        "native": "Nouvelle-Calédonie",
        "name": "New Caledonia",
        "code": "NC",
        "phoneCode": "687",
        "states": []
    },
    {
        "native": "New Zealand",
        "name": "New Zealand",
        "code": "NZ",
        "phoneCode": "64",
        "states": [
            "Auckland",
            "New Plymouth",
            "Hawke's Bay",
            "Wellington",
            "Nelson",
            "Marlborough",
            "Westland",
            "Canterbury",
            "Otago",
            "Southland"
        ]
    },
    {
        "native": "Nicaragua",
        "name": "Nicaragua",
        "code": "NI",
        "phoneCode": "505",
        "states": []
    },
    {
        "native": "Niger",
        "name": "Niger",
        "code": "NE",
        "phoneCode": "227",
        "states": []
    },
    {
        "native": "Nigeria",
        "name": "Nigeria",
        "code": "NG",
        "phoneCode": "234",
        "states": [
            "Abia",
            "Abuja",
            "Adamawa",
            "Akwa Ibom",
            "Anambra",
            "Bauchi",
            "Bayelsa",
            "Benue",
            "Borno",
            "Cross River",
            "Delta",
            "Ebonyi",
            "Edo",
            "Ekiti",
            "Enugu",
            "Gombe",
            "Imo",
            "Jigawa",
            "Kaduna",
            "Kano",
            "Katsina",
            "Kebbi",
            "Kogi",
            "Kwara",
            "Lagos",
            "Nasarawa",
            "Niger",
            "Ogun",
            "Ondo",
            "Osun",
            "Oyo",
            "Plateau",
            "Rivers",
            "Sokoto",
            "Taraba",
            "Yobe",
            "Zamfara"
        ]
    },
    {
        "native": "Niuē",
        "name": "Niue",
        "code": "NU",
        "phoneCode": "683",
        "states": []
    },
    {
        "native": "Norfolk Island",
        "name": "Norfolk Island",
        "code": "NF",
        "phoneCode": "672",
        "states": []
    },
    {
        "native": "Northern Mariana Islands",
        "name": "Northern Mariana Islands",
        "code": "MP",
        "phoneCode": "+1-670",
        "states": []
    },
    {
        "native": "Norge",
        "name": "Norway",
        "code": "NO",
        "phoneCode": "47",
        "states": []
    },
    {
        "native": "عمان",
        "name": "Oman",
        "code": "OM",
        "phoneCode": "968",
        "states": []
    },
    {
        "native": "Pakistan",
        "name": "Pakistan",
        "code": "PK",
        "phoneCode": "92",
        "states": [
            "Azad Kashmir",
            "Bahawalpur",
            "Bannu",
            "Dera Ghazi Khan",
            "Dera Ismail Khan",
            "Faisalabad",
            "F.A.T.A.",
            "Gujranwala",
            "Hazara",
            "Hyderabad",
            "Islamabad",
            "Kalat",
            "Karachi",
            "Kohat",
            "Lahore",
            "Larkana",
            "Makran",
            "Malakand",
            "Mardan",
            "Mirpur Khas",
            "Multan",
            "Nasirabad",
            "Northern Areas",
            "Peshawar",
            "Quetta",
            "Rawalpindi",
            "Sargodha",
            "Sahiwal",
            "Sibi",
            "Sukkur",
            "Zhob"
        ]
    },
    {
        "native": "Palau",
        "name": "Palau",
        "code": "PW",
        "phoneCode": "680",
        "states": []
    },
    {
        "native": "فلسطين",
        "name": "Palestinian Territory Occupied",
        "code": "PS",
        "phoneCode": "970",
        "states": []
    },
    {
        "native": "Panamá",
        "name": "Panama",
        "code": "PA",
        "phoneCode": "507",
        "states": []
    },
    {
        "native": "Papua Niugini",
        "name": "Papua new Guinea",
        "code": "PG",
        "phoneCode": "675",
        "states": []
    },
    {
        "native": "Paraguay",
        "name": "Paraguay",
        "code": "PY",
        "phoneCode": "595",
        "states": []
    },
    {
        "native": "Perú",
        "name": "Peru",
        "code": "PE",
        "phoneCode": "51",
        "states": [
            "Chachapoyas",
            "Bagua",
            "Bongará",
            "Condorcanqui",
            "Luya",
            "Rodríguez de Mendoza",
            "Utcubamba",
            "Huaraz",
            "Aija",
            "Antonio Raymondi",
            "Asunción",
            "Bolognesi",
            "Carhuaz",
            "Carlos Fermín Fitzcarrald",
            "Casma",
            "Corongo",
            "Huari",
            "Huarmey",
            "Huaylas",
            "Mariscal Luzuriaga",
            "Ocros",
            "Pallasca",
            "Pomabamba",
            "Recuay",
            "Santa",
            "Sihuas",
            "Yungay",
            "Abancay",
            "Andahuaylas",
            "Antabamba",
            "Aymaraes",
            "Cotabambas",
            "Chincheros",
            "Grau",
            "Arequipa",
            "Camaná",
            "Caravelí",
            "Castilla",
            "Caylloma",
            "Condesuyos",
            "Islay",
            "La Unión",
            "Huamanga",
            "Cangallo",
            "Huanca Sancos",
            "Huanta",
            "La Mar",
            "Lucanas",
            "Parinacochas",
            "Páucar del Sara Sara",
            "Sucre",
            "Víctor Fajardo",
            "Vilcas Huamán",
            "Cajamarca",
            "Cajabamba",
            "Celendín",
            "Chota",
            "Contumazá",
            "Cutervo",
            "Hualgayoc",
            "Jaén",
            "San Ignacio",
            "San Marcos",
            "San Miguel",
            "San Pablo",
            "Santa Cruz",
            "Callao",
            "Cusco",
            "Acomayo",
            "Anta",
            "Calca",
            "Canas",
            "Canchis",
            "Chumbivilcas",
            "Espinar",
            "La Convención",
            "Paruro",
            "Paucartambo",
            "Quispicanchi",
            "Urubamba",
            "Huancavelica",
            "Acobamba",
            "Angaraes",
            "Castrovirreyna",
            "Churcampa",
            "Huaytará",
            "Tayacaja",
            "Huánuco",
            "Ambo",
            "Dos de Mayo",
            "Huacaybamba",
            "Huamalíes",
            "Leoncio Prado",
            "Marañón",
            "Pachitea",
            "Puerto Inca",
            "Lauricocha",
            "Yarowilca",
            "Ica",
            "Chincha",
            "Nazca",
            "Palpa",
            "Pisco",
            "Huancayo",
            "Concepción",
            "Chanchamayo",
            "Jauja",
            "Junín",
            "Satipo",
            "Tarma",
            "Yauli",
            "Chupaca",
            "Trujillo",
            "Ascope",
            "Bolívar",
            "Chepén",
            "Julcán",
            "Otuzco",
            "Pacasmayo",
            "Pataz",
            "Sánchez Carrión",
            "Santiago de Chuco",
            "Gran Chimú",
            "Virú",
            "Chiclayo",
            "Ferreñafe",
            "Lambayeque",
            "Lima",
            "Huaura",
            "Barranca",
            "Cajatambo",
            "Canta",
            "Cañete",
            "Huaral",
            "Huarochirí",
            "Oyón",
            "Yauyos",
            "Maynas",
            "Alto Amazonas",
            "Loreto",
            "Mariscal Ramón Castilla",
            "Putumayo",
            "Requena",
            "Ucayali",
            "Datem del Marañón",
            "Tambopata",
            "Manú",
            "Tahuamanu",
            "Mariscal Nieto",
            "General Sánchez Cerro",
            "Ilo",
            "Pasco",
            "Daniel Alcídes Carrión",
            "Oxapampa",
            "Piura",
            "Ayabaca",
            "Huancabamba",
            "Morropón",
            "Paita",
            "Sullana",
            "Talara",
            "Sechura",
            "Puno",
            "Azángaro",
            "Carabaya",
            "Chucuito",
            "El Collao",
            "Huancané",
            "Lampa",
            "Melgar",
            "Moho",
            "San Antonio de Putina",
            "San Román",
            "Sandia",
            "Yunguyo",
            "Moyobamba",
            "Bellavista",
            "El Dorado",
            "Huallaga",
            "Lamas",
            "Mariscal Cáceres",
            "Picota",
            "Rioja",
            "San Martín",
            "Tocache",
            "Tacna",
            "Candarave",
            "Jorge Basadre",
            "Tarata",
            "Tumbes",
            "Contralmirante Villar",
            "Zarumilla",
            "Coronel Portillo",
            "Atalaya",
            "Padre Abad",
            "Purús"
        ]
    },
    {
        "native": "Pilipinas",
        "name": "Philippines",
        "code": "PH",
        "phoneCode": "63",
        "states": [
            "Abra",
            "Agusan del Norte",
            "Agusan del Sur",
            "Aklan",
            "Albay",
            "Antique",
            "Apayao",
            "Aurora",
            "Basilan",
            "Bataan",
            "Batanes",
            "Batangas",
            "Benguet",
            "Biliran",
            "Bohol",
            "Bukidnon",
            "Bulacan",
            "Cagayan",
            "Camarines Norte",
            "Camarines Sur",
            "Camiguin",
            "Capiz",
            "Catanduanes",
            "Cavite",
            "Cebu",
            "Compostela Valley",
            "Cotabato",
            "Davao del Norte",
            "Davao del Sur",
            "Davao Occidental",
            "Davao Oriental",
            "Dinagat Islands",
            "Eastern Samar",
            "Guimaras",
            "Ifugao",
            "Ilocos Norte",
            "Ilocos Sur",
            "Iloilo",
            "Isabela",
            "Kalinga",
            "La Union",
            "Laguna",
            "Lanao del Norte",
            "Lanao del Sur",
            "Leyte",
            "Maguindanao",
            "Marinduque",
            "Masbate",
            "Misamis Occidental",
            "Misamis Oriental",
            "Mountain Province",
            "Negros Occidental",
            "Negros Oriental",
            "Northern Samar",
            "Nueva Ecija",
            "Nueva Vizcaya",
            "Occidental Mindoro",
            "Oriental Mindoro",
            "Palawan",
            "Pampanga",
            "Pangasinan",
            "Quezon",
            "Quirino",
            "Rizal",
            "Romblon",
            "Samar",
            "Sarangani",
            "Siquijor",
            "Sorsogon",
            "South Cotabato",
            "Southern Leyte",
            "Sultan Kudarat",
            "Sulu",
            "Surigao del Norte",
            "Surigao del Sur",
            "Tarlac",
            "Tawi-Tawi",
            "Zambales",
            "Zamboanga del Norte",
            "Zamboanga del Sur",
            "Zamboanga Sibugay",
            "Metro Manila"
        ]
    },
    {
        "native": "Pitcairn Islands",
        "name": "Pitcairn Island",
        "code": "PN",
        "phoneCode": "870",
        "states": []
    },
    {
        "native": "Polska",
        "name": "Poland",
        "code": "PL",
        "phoneCode": "48",
        "states": []
    },
    {
        "native": "Portugal",
        "name": "Portugal",
        "code": "PT",
        "phoneCode": "351",
        "states": []
    },
    {
        "native": "Puerto Rico",
        "name": "Puerto Rico",
        "code": "PR",
        "phoneCode": "+1-787 and 1-939",
        "states": []
    },
    {
        "native": "قطر",
        "name": "Qatar",
        "code": "QA",
        "phoneCode": "974",
        "states": []
    },
    {
        "native": "La Réunion",
        "name": "Reunion",
        "code": "RE",
        "phoneCode": "262",
        "states": []
    },
    {
        "native": "România",
        "name": "Romania",
        "code": "RO",
        "phoneCode": "40",
        "states": []
    },
    {
        "native": "Россия",
        "name": "Russia",
        "code": "RU",
        "phoneCode": "7",
        "states": []
    },
    {
        "native": "Rwanda",
        "name": "Rwanda",
        "code": "RW",
        "phoneCode": "250",
        "states": []
    },
    {
        "native": "Saint Helena",
        "name": "Saint Helena",
        "code": "SH",
        "phoneCode": "290",
        "states": []
    },
    {
        "native": "Saint Kitts and Nevis",
        "name": "Saint Kitts And Nevis",
        "code": "KN",
        "phoneCode": "+1-869",
        "states": []
    },
    {
        "native": "Saint Lucia",
        "name": "Saint Lucia",
        "code": "LC",
        "phoneCode": "+1-758",
        "states": []
    },
    {
        "native": "Saint-Pierre-et-Miquelon",
        "name": "Saint Pierre and Miquelon",
        "code": "PM",
        "phoneCode": "508",
        "states": []
    },
    {
        "native": "Saint Vincent and the Grenadines",
        "name": "Saint Vincent And The Grenadines",
        "code": "VC",
        "phoneCode": "+1-784",
        "states": []
    },
    {
        "native": "Saint-Barthélemy",
        "name": "Saint-Barthelemy",
        "code": "BL",
        "phoneCode": "590",
        "states": []
    },
    {
        "native": "Saint-Martin",
        "name": "Saint-Martin (French part)",
        "code": "MF",
        "phoneCode": "590",
        "states": []
    },
    {
        "native": "Samoa",
        "name": "Samoa",
        "code": "WS",
        "phoneCode": "685",
        "states": []
    },
    {
        "native": "San Marino",
        "name": "San Marino",
        "code": "SM",
        "phoneCode": "378",
        "states": []
    },
    {
        "native": "São Tomé e Príncipe",
        "name": "Sao Tome and Principe",
        "code": "ST",
        "phoneCode": "239",
        "states": []
    },
    {
        "native": "العربية السعودية",
        "name": "Saudi Arabia",
        "code": "SA",
        "phoneCode": "966",
        "states": []
    },
    {
        "native": "Sénégal",
        "name": "Senegal",
        "code": "SN",
        "phoneCode": "221",
        "states": []
    },
    {
        "native": "Србија",
        "name": "Serbia",
        "code": "RS",
        "phoneCode": "381",
        "states": []
    },
    {
        "native": "Seychelles",
        "name": "Seychelles",
        "code": "SC",
        "phoneCode": "248",
        "states": []
    },
    {
        "native": "Sierra Leone",
        "name": "Sierra Leone",
        "code": "SL",
        "phoneCode": "232",
        "states": []
    },
    {
        "native": "Singapore",
        "name": "Singapore",
        "code": "SG",
        "phoneCode": "65",
        "states": []
    },
    {
        "native": "Sint Maarten",
        "name": "Sint Maarten (Dutch part)",
        "code": "SX",
        "phoneCode": "1721",
        "states": []
    },
    {
        "native": "Slovensko",
        "name": "Slovakia",
        "code": "SK",
        "phoneCode": "421",
        "states": []
    },
    {
        "native": "Slovenija",
        "name": "Slovenia",
        "code": "SI",
        "phoneCode": "386",
        "states": []
    },
    {
        "native": "Solomon Islands",
        "name": "Solomon Islands",
        "code": "SB",
        "phoneCode": "677",
        "states": []
    },
    {
        "native": "Soomaaliya",
        "name": "Somalia",
        "code": "SO",
        "phoneCode": "252",
        "states": []
    },
    {
        "native": "South Africa",
        "name": "South Africa",
        "code": "ZA",
        "phoneCode": "27",
        "states": []
    },
    {
        "native": "South Georgia",
        "name": "South Georgia",
        "code": "GS",
        "phoneCode": "",
        "states": []
    },
    {
        "native": "South Sudan",
        "name": "South Sudan",
        "code": "SS",
        "phoneCode": "211",
        "states": []
    },
    {
        "native": "España",
        "name": "Spain",
        "code": "ES",
        "phoneCode": "34",
        "states": [
            "La Coruña",
            "Lugo",
            "Vizcaya",
            "Guipúzcoa",
            "Huesca",
            "Lérida",
            "Gerona",
            "Barcelona",
            "Tarragona",
            "Castellón",
            "Valencia",
            "Alicante",
            "Murcia",
            "Zaragoza",
            "Teruel",
            "Cuenca",
            "Albacete",
            "Almeria",
            "Granada",
            "Málaga",
            "Tenerife",
            "Cádiz",
            "Sevilla",
            "Huelva",
            "Las Palmas",
            "Madrid",
            "Badajoz",
            "Cáceres",
            "Toledo",
            "Ciudad Real",
            "Salamanca",
            "Córdoba",
            "Jaén",
            "Ávila",
            "Valladolid",
            "Zamora",
            "Álava",
            "Segovia",
            "Burgos",
            "Pontevedra",
            "León",
            "Orense",
            "Palencia",
            "La Rioja",
            "Soria",
            "Guadalajara"
        ]
    },
    {
        "native": "śrī laṃkāva",
        "name": "Sri Lanka",
        "code": "LK",
        "phoneCode": "94",
        "states": []
    },
    {
        "native": "السودان",
        "name": "Sudan",
        "code": "SD",
        "phoneCode": "249",
        "states": []
    },
    {
        "native": "Suriname",
        "name": "Suriname",
        "code": "SR",
        "phoneCode": "597",
        "states": []
    },
    {
        "native": "Svalbard og Jan Mayen",
        "name": "Svalbard And Jan Mayen Islands",
        "code": "SJ",
        "phoneCode": "47",
        "states": []
    },
    {
        "native": "Swaziland",
        "name": "Swaziland",
        "code": "SZ",
        "phoneCode": "268",
        "states": []
    },
    {
        "native": "Sverige",
        "name": "Sweden",
        "code": "SE",
        "phoneCode": "46",
        "states": []
    },
    {
        "native": "Schweiz",
        "name": "Switzerland",
        "code": "CH",
        "phoneCode": "41",
        "states": []
    },
    {
        "native": "سوريا",
        "name": "Syria",
        "code": "SY",
        "phoneCode": "963",
        "states": []
    },
    {
        "native": "臺灣",
        "name": "Taiwan",
        "code": "TW",
        "phoneCode": "886",
        "states": []
    },
    {
        "native": "Тоҷикистон",
        "name": "Tajikistan",
        "code": "TJ",
        "phoneCode": "992",
        "states": []
    },
    {
        "native": "Tanzania",
        "name": "Tanzania",
        "code": "TZ",
        "phoneCode": "255",
        "states": []
    },
    {
        "native": "ประเทศไทย",
        "name": "Thailand",
        "code": "TH",
        "phoneCode": "66",
        "states": []
    },
    {
        "native": "Togo",
        "name": "Togo",
        "code": "TG",
        "phoneCode": "228",
        "states": []
    },
    {
        "native": "Tokelau",
        "name": "Tokelau",
        "code": "TK",
        "phoneCode": "690",
        "states": []
    },
    {
        "native": "Tonga",
        "name": "Tonga",
        "code": "TO",
        "phoneCode": "676",
        "states": []
    },
    {
        "native": "Trinidad and Tobago",
        "name": "Trinidad And Tobago",
        "code": "TT",
        "phoneCode": "+1-868",
        "states": []
    },
    {
        "native": "تونس",
        "name": "Tunisia",
        "code": "TN",
        "phoneCode": "216",
        "states": []
    },
    {
        "native": "Türkiye",
        "name": "Turkey",
        "code": "TR",
        "phoneCode": "90",
        "states": [
            "Adana",
            "Adıyaman",
            "Afyonkarahisar",
            "Ağrı",
            "Amasya",
            "Ankara",
            "Antalya",
            "Artvin",
            "Aydın",
            "Balıkesir",
            "Bilecik",
            "Bingöl",
            "Bitlis",
            "Bolu",
            "Burdur",
            "Bursa",
            "Çanakkale",
            "Çankırı",
            "Çorum",
            "Denizli",
            "Diyarbakır",
            "Edirne",
            "Elazığ",
            "Erzincan",
            "Erzurum",
            "Eskişehir",
            "Gaziantep",
            "Giresun",
            "Gümüşhane",
            "Hakkâri",
            "Hatay",
            "Isparta",
            "Mersin",
            "Istanbul",
            "İzmir",
            "Kars",
            "Kastamonu",
            "Kayseri",
            "Kırklareli",
            "Kırşehir",
            "Kocaeli",
            "Konya",
            "Kütahya",
            "Malatya",
            "Manisa",
            "Kahramanmaraş",
            "Mardin",
            "Muğla",
            "Muş",
            "Nevşehir",
            "Niğde",
            "Ordu",
            "Rize",
            "Sakarya",
            "Samsun",
            "Siirt",
            "Sinop",
            "Sivas",
            "Tekirdağ",
            "Tokat",
            "Trabzon",
            "Tunceli",
            "Şanlıurfa",
            "Uşak",
            "Van",
            "Yozgat",
            "Zonguldak",
            "Aksaray",
            "Bayburt",
            "Karaman",
            "Kırıkkale",
            "Batman",
            "Şırnak",
            "Bartın",
            "Ardahan",
            "Iğdır",
            "Yalova",
            "Karabük",
            "Kilis",
            "Osmaniye",
            "Düzce"
        ]
    },
    {
        "native": "Türkmenistan",
        "name": "Turkmenistan",
        "code": "TM",
        "phoneCode": "993",
        "states": []
    },
    {
        "native": "Turks and Caicos Islands",
        "name": "Turks And Caicos Islands",
        "code": "TC",
        "phoneCode": "+1-649",
        "states": []
    },
    {
        "native": "Tuvalu",
        "name": "Tuvalu",
        "code": "TV",
        "phoneCode": "688",
        "states": []
    },
    {
        "native": "Uganda",
        "name": "Uganda",
        "code": "UG",
        "phoneCode": "256",
        "states": []
    },
    {
        "native": "Україна",
        "name": "Ukraine",
        "code": "UA",
        "phoneCode": "380",
        "states": []
    },
    {
        "native": "دولة الإمارات العربية المتحدة",
        "name": "United Arab Emirates",
        "code": "AE",
        "phoneCode": "971",
        "states": []
    },
    {
        "native": "United Kingdom",
        "name": "United Kingdom",
        "code": "GB",
        "phoneCode": "44",
        "states": [
            "Avon",
            "Bedfordshire",
            "Berkshire",
            "Borders",
            "Bristol",
            "Buckinghamshire",
            "Cambridgeshire",
            "Channel Islands",
            "Cheshire",
            "Cleveland",
            "Cornwall",
            "Cumbria",
            "Derbyshire",
            "Devon",
            "Dorset",
            "Durham",
            "East Riding of Yorkshire",
            "East Sussex",
            "Essex",
            "Gloucestershire",
            "Greater Manchester",
            "Hampshire",
            "Herefordshire",
            "Hertfordshire",
            "Humberside",
            "Isle of Man",
            "Isle of Wight",
            "Isles of Scilly",
            "Kent",
            "Lancashire",
            "Leicestershire",
            "Lincolnshire",
            "London",
            "Merseyside",
            "Middlesex",
            "Norfolk",
            "North Yorkshire",
            "Northamptonshire",
            "Northumberland",
            "Nottinghamshire",
            "Oxfordshire",
            "Rutland",
            "Shropshire",
            "Somerset",
            "South Yorkshire",
            "Staffordshire",
            "Suffolk",
            "Surrey",
            "Tyne and Wear",
            "Warwickshire",
            "West Midlands",
            "West Sussex",
            "West Yorkshire",
            "Wiltshire",
            "Worcestershire",
            "Antrim",
            "Down",
            "Fermanagh",
            "Londonderry",
            "Tyrone",
            "Aberdeen City",
            "Aberdeenshire",
            "Angus",
            "Argyll and Bute",
            "Armagh",
            "Carmarthenshire",
            "Clackmannan",
            "Dumfries and Galloway",
            "East Ayrshire",
            "East Dunbartonshire",
            "East Lothian",
            "East Renfrewshire",
            "Edinburgh City",
            "Falkirk",
            "Fife",
            "Glasgow",
            "Highland",
            "Inverclyde",
            "Midlothian",
            "Moray",
            "North Ayrshire",
            "North Lanarkshire",
            "Orkney",
            "Perthshire and Kinross",
            "Renfrewshire",
            "Roxburghshire",
            "Shetland",
            "South Ayrshire",
            "South Lanarkshire",
            "Stirling",
            "West Dunbartonshire",
            "West Lothian",
            "Western Isles",
            "Blaenau Gwent",
            "Bridgend",
            "Caerphilly",
            "Cardiff",
            "Ceredigion",
            "Conwy",
            "Denbighshire",
            "Flintshire",
            "Gwynedd",
            "Isle of Anglesey",
            "Merthyr Tydfil",
            "Monmouthshire",
            "Neath Port Talbot",
            "Newport",
            "Pembrokeshire",
            "Powys",
            "Rhondda Cynon Taff",
            "Swansea",
            "The Vale of Glamorgan",
            "Torfaen",
            "Wrexham"
        ]
    },
    {
        "native": "United States",
        "name": "United States",
        "code": "US",
        "phoneCode": "1",
        "states": [
            "Alabama",
            "Alaska",
            "Arizona",
            "Arkansas",
            "California",
            "Colorado",
            "Connecticut",
            "District of Columbia",
            "Delaware",
            "Florida",
            "Georgia",
            "Hawaii",
            "Idaho",
            "Illinois",
            "Indiana",
            "Iowa",
            "Kansas",
            "Kentucky",
            "Louisiana",
            "Maine",
            "Maryland",
            "Massachusetts",
            "Michigan",
            "Minnesota",
            "Mississippi",
            "Missouri",
            "Montana",
            "Nebraska",
            "Nevada",
            "New Hampshire",
            "New Jersey",
            "New Mexico",
            "New York",
            "North Carolina",
            "North Dakota",
            "Ohio",
            "Oklahoma",
            "Oregon",
            "Pennsylvania",
            "Rhode Island",
            "South Carolina",
            "South Dakota",
            "Tennessee",
            "Texas",
            "Utah",
            "Vermont",
            "Virginia",
            "Washington",
            "West Virginia",
            "Wisconsin",
            "Wyoming",
            "American Samoa",
            "Guam",
            "Northern Mariana Islands",
            "Puerto Rico",
            "United States Minor Outlying Islands",
            "Virgin Islands"
        ]
    },
    {
        "native": "United States Minor Outlying Islands",
        "name": "United States Minor Outlying Islands",
        "code": "UM",
        "phoneCode": "1",
        "states": []
    },
    {
        "native": "Uruguay",
        "name": "Uruguay",
        "code": "UY",
        "phoneCode": "598",
        "states": []
    },
    {
        "native": "O‘zbekiston",
        "name": "Uzbekistan",
        "code": "UZ",
        "phoneCode": "998",
        "states": []
    },
    {
        "native": "Vanuatu",
        "name": "Vanuatu",
        "code": "VU",
        "phoneCode": "678",
        "states": []
    },
    {
        "native": "Vaticano",
        "name": "Vatican City State (Holy See)",
        "code": "VA",
        "phoneCode": "379",
        "states": []
    },
    {
        "native": "Venezuela",
        "name": "Venezuela",
        "code": "VE",
        "phoneCode": "58",
        "states": []
    },
    {
        "native": "Việt Nam",
        "name": "Vietnam",
        "code": "VN",
        "phoneCode": "84",
        "states": [
            "Hà Nội",
            "Hà Giang",
            "Cao Bằng",
            "Bắc Kạn",
            "Tuyên Quang",
            "Lào Cai",
            "Điện Biên",
            "Lai Châu",
            "Sơn La",
            "Yên Bái",
            "Hòa Bình",
            "Thái Nguyên",
            "Lạng Sơn",
            "Quảng Ninh",
            "Bắc Giang",
            "Phú Thọ",
            "Vĩnh Phúc",
            "Bắc Ninh",
            "Hải Dương",
            "Hải Phòng",
            "Hưng Yên",
            "Thái Bình",
            "Hà Nam",
            "Nam Định",
            "Ninh Bình",
            "Thanh Hóa",
            "Nghệ An",
            "Hà Tĩnh",
            "Quảng Bình",
            "Quảng Trị",
            "Thừa Thiên–Huế",
            "Đà Nẵng",
            "Quảng Nam",
            "Quảng Ngãi",
            "Bình Định",
            "Phú Yên",
            "Khánh Hòa",
            "Ninh Thuận",
            "Bình Thuận",
            "Kon Tum",
            "Gia Lai",
            "Đắk Lắk",
            "Đắk Nông",
            "Lâm Đồng",
            "Bình Phước",
            "Tây Ninh",
            "Bình Dương",
            "Đồng Nai",
            "Bà Rịa–Vũng Tàu",
            "Thành phố Hồ Chí Minh",
            "Long An",
            "Tiền Giang",
            "Bến Tre",
            "Trà Vinh",
            "Vĩnh Long",
            "Đồng Tháp",
            "An Giang",
            "Kiên Giang",
            "Cần Thơ",
            "Hậu Giang",
            "Sóc Trăng",
            "Bạc Liêu",
            "Cà Mau"
        ]
    },
    {
        "native": "British Virgin Islands",
        "name": "Virgin Islands (British)",
        "code": "VG",
        "phoneCode": "+1-284",
        "states": []
    },
    {
        "native": "United States Virgin Islands",
        "name": "Virgin Islands (US)",
        "code": "VI",
        "phoneCode": "+1-340",
        "states": []
    },
    {
        "native": "Wallis et Futuna",
        "name": "Wallis And Futuna Islands",
        "code": "WF",
        "phoneCode": "681",
        "states": []
    },
    {
        "native": "الصحراء الغربية",
        "name": "Western Sahara",
        "code": "EH",
        "phoneCode": "212",
        "states": []
    },
    {
        "native": "اليَمَن",
        "name": "Yemen",
        "code": "YE",
        "phoneCode": "967",
        "states": []
    },
    {
        "native": "Zambia",
        "name": "Zambia",
        "code": "ZM",
        "phoneCode": "260",
        "states": []
    },
    {
        "native": "Zimbabwe",
        "name": "Zimbabwe",
        "code": "ZW",
        "phoneCode": "263",
        "states": []
    }
]